{
  "type": "FeatureCollection",
  "features": [
    {
      "type": "Feature",
      "properties": {
        "norad_id": 40128,
        "name": "GSAT0201 (GALILEO 5)",
        "group": "gnss",
        "lat": -23.306269243424886,
        "lon": -100.87335245603049,
        "alt_km": 25679.951815450597,
        "timestamp": "2025-12-12T20:43:07.278029+00:00",
        "meta_object_name": "GSAT0201 (GALILEO 5)",
        "meta_object_id": "2014-050A",
        "meta_epoch": "2025-12-09T03:42:58.517280",
        "meta_mean_motion": 1.8551953,
        "meta_eccentricity": 0.164755,
        "meta_inclination": 49.0809,
        "meta_ra_of_asc_node": 281.2097,
        "meta_arg_of_pericenter": 172.1436,
        "meta_mean_anomaly": 190.8359,
        "meta_ephemeris_type": 0,
        "meta_classification_type": "U",
        "meta_norad_cat_id": 40128,
        "meta_element_set_no": 999,
        "meta_rev_at_epoch": 7479,
        "meta_bstar": 0,
        "meta_mean_motion_dot": -7.1e-07,
        "meta_mean_motion_ddot": 0,
        "tle_line1": "1 40128U 14050A   25343.15484395 -.00000071  00000+0  00000+0 0  9998",
        "tle_line2": "2 40128  49.0809 281.2097 1647550 172.1436 190.8359  1.85519530 74797"
      },
      "geometry": {
        "type": "Point",
        "coordinates": [
          -100.87335245603049,
          -23.306269243424886
        ]
      }
    },
    {
      "type": "Feature",
      "properties": {
        "norad_id": 40129,
        "name": "GSAT0202 (GALILEO 6)",
        "group": "gnss",
        "lat": 29.81338599539286,
        "lon": 70.37880929512572,
        "alt_km": 17562.462193908017,
        "timestamp": "2025-12-12T20:43:07.278040+00:00",
        "meta_object_name": "GSAT0202 (GALILEO 6)",
        "meta_object_id": "2014-050B",
        "meta_epoch": "2025-12-11T13:36:31.827456",
        "meta_mean_motion": 1.85520366,
        "meta_eccentricity": 0.16485158,
        "meta_inclination": 49.0938,
        "meta_ra_of_asc_node": 280.195,
        "meta_arg_of_pericenter": 172.988,
        "meta_mean_anomaly": 189.677,
        "meta_ephemeris_type": 0,
        "meta_classification_type": "U",
        "meta_norad_cat_id": 40129,
        "meta_element_set_no": 999,
        "meta_rev_at_epoch": 7700,
        "meta_bstar": 0,
        "meta_mean_motion_dot": -9.2e-07,
        "meta_mean_motion_ddot": 0,
        "tle_line1": "1 40129U 14050B   25345.56703504 -.00000092  00000+0  00000+0 0  9995",
        "tle_line2": "2 40129  49.0938 280.1950 1648515 172.9880 189.6770  1.85520366 77009"
      },
      "geometry": {
        "type": "Point",
        "coordinates": [
          70.37880929512572,
          29.81338599539286
        ]
      }
    },
    {
      "type": "Feature",
      "properties": {
        "norad_id": 40269,
        "name": "IRNSS-1C",
        "group": "gnss",
        "lat": 2.3687408306339193,
        "lon": 115.46369993499042,
        "alt_km": 35712.67554905354,
        "timestamp": "2025-12-12T20:43:07.278052+00:00",
        "meta_object_name": "IRNSS-1C",
        "meta_object_id": "2014-061A",
        "meta_epoch": "2025-12-11T20:45:10.950912",
        "meta_mean_motion": 1.00277482,
        "meta_eccentricity": 0.0018087,
        "meta_inclination": 6.0386,
        "meta_ra_of_asc_node": 92.6405,
        "meta_arg_of_pericenter": 2.2813,
        "meta_mean_anomaly": 20.0948,
        "meta_ephemeris_type": 0,
        "meta_classification_type": "U",
        "meta_norad_cat_id": 40269,
        "meta_element_set_no": 999,
        "meta_rev_at_epoch": 4081,
        "meta_bstar": 0,
        "meta_mean_motion_dot": -1.54e-06,
        "meta_mean_motion_ddot": 0,
        "tle_line1": "1 40269U 14061A   25345.86471008 -.00000154  00000+0  00000+0 0  9995",
        "tle_line2": "2 40269   6.0386  92.6405 0018087   2.2813  20.0948  1.00277482 40819"
      },
      "geometry": {
        "type": "Point",
        "coordinates": [
          115.46369993499042,
          2.3687408306339193
        ]
      }
    },
    {
      "type": "Feature",
      "properties": {
        "norad_id": 40294,
        "name": "GPS BIIF-8  (PRN 03)",
        "group": "gnss",
        "lat": -50.972941173238844,
        "lon": -15.48983191749339,
        "alt_km": 20305.970014584724,
        "timestamp": "2025-12-12T20:43:07.278065+00:00",
        "meta_object_name": "GPS BIIF-8  (PRN 03)",
        "meta_object_id": "2014-068A",
        "meta_epoch": "2025-12-11T11:05:24.874080",
        "meta_mean_motion": 2.00564727,
        "meta_eccentricity": 0.0060777,
        "meta_inclination": 56.8569,
        "meta_ra_of_asc_node": 38.1954,
        "meta_arg_of_pericenter": 69.205,
        "meta_mean_anomaly": 291.4963,
        "meta_ephemeris_type": 0,
        "meta_classification_type": "U",
        "meta_norad_cat_id": 40294,
        "meta_element_set_no": 999,
        "meta_rev_at_epoch": 8144,
        "meta_bstar": 0,
        "meta_mean_motion_dot": -9.3e-07,
        "meta_mean_motion_ddot": 0,
        "tle_line1": "1 40294U 14068A   25345.46209345 -.00000093  00000+0  00000+0 0  9991",
        "tle_line2": "2 40294  56.8569  38.1954 0060777  69.2050 291.4963  2.00564727 81443"
      },
      "geometry": {
        "type": "Point",
        "coordinates": [
          -15.48983191749339,
          -50.972941173238844
        ]
      }
    },
    {
      "type": "Feature",
      "properties": {
        "norad_id": 40315,
        "name": "COSMOS 2501 (702K)",
        "group": "gnss",
        "lat": -58.172427642835046,
        "lon": 69.9305322053336,
        "alt_km": 19101.058057336628,
        "timestamp": "2025-12-12T20:43:07.278077+00:00",
        "meta_object_name": "COSMOS 2501 (702K)",
        "meta_object_id": "2014-075A",
        "meta_epoch": "2025-12-07T20:13:51.362112",
        "meta_mean_motion": 2.13101338,
        "meta_eccentricity": 0.00201356,
        "meta_inclination": 63.6139,
        "meta_ra_of_asc_node": 196.9947,
        "meta_arg_of_pericenter": 204.4913,
        "meta_mean_anomaly": 155.4908,
        "meta_ephemeris_type": 0,
        "meta_classification_type": "U",
        "meta_norad_cat_id": 40315,
        "meta_element_set_no": 999,
        "meta_rev_at_epoch": 8577,
        "meta_bstar": 0,
        "meta_mean_motion_dot": 5.4e-07,
        "meta_mean_motion_ddot": 0,
        "tle_line1": "1 40315U 14075A   25341.84295558  .00000054  00000+0  00000+0 0  9998",
        "tle_line2": "2 40315  63.6139 196.9947 0020135 204.4913 155.4908  2.13101338 85773"
      },
      "geometry": {
        "type": "Point",
        "coordinates": [
          69.9305322053336,
          -58.172427642835046
        ]
      }
    },
    {
      "type": "Feature",
      "properties": {
        "norad_id": 40534,
        "name": "GPS BIIF-9  (PRN 26)",
        "group": "gnss",
        "lat": -15.188868316352783,
        "lon": 43.6154017567371,
        "alt_km": 20452.482737133625,
        "timestamp": "2025-12-12T20:43:07.278088+00:00",
        "meta_object_name": "GPS BIIF-9  (PRN 26)",
        "meta_object_id": "2015-013A",
        "meta_epoch": "2025-12-11T14:12:34.875648",
        "meta_mean_motion": 2.00562655,
        "meta_eccentricity": 0.01070076,
        "meta_inclination": 53.1979,
        "meta_ra_of_asc_node": 211.9377,
        "meta_arg_of_pericenter": 38.4526,
        "meta_mean_anomaly": 322.3807,
        "meta_ephemeris_type": 0,
        "meta_classification_type": "U",
        "meta_norad_cat_id": 40534,
        "meta_element_set_no": 999,
        "meta_rev_at_epoch": 7806,
        "meta_bstar": 0,
        "meta_mean_motion_dot": 2.2e-07,
        "meta_mean_motion_ddot": 0,
        "tle_line1": "1 40534U 15013A   25345.59207032  .00000022  00000+0  00000+0 0  9995",
        "tle_line2": "2 40534  53.1979 211.9377 0107007  38.4526 322.3807  2.00562655 78062"
      },
      "geometry": {
        "type": "Point",
        "coordinates": [
          43.6154017567371,
          -15.188868316352783
        ]
      }
    },
    {
      "type": "Feature",
      "properties": {
        "norad_id": 40544,
        "name": "GSAT0203 (GALILEO 7)",
        "group": "gnss",
        "lat": 50.380616461709955,
        "lon": 114.52622458304484,
        "alt_km": 23234.069658968998,
        "timestamp": "2025-12-12T20:43:07.278100+00:00",
        "meta_object_name": "GSAT0203 (GALILEO 7)",
        "meta_object_id": "2015-017A",
        "meta_epoch": "2025-12-11T12:08:22.810848",
        "meta_mean_motion": 1.70475934,
        "meta_eccentricity": 0.00065093,
        "meta_inclination": 56.8465,
        "meta_ra_of_asc_node": 346.7135,
        "meta_arg_of_pericenter": 271.8959,
        "meta_mean_anomaly": 88.0466,
        "meta_ephemeris_type": 0,
        "meta_classification_type": "U",
        "meta_norad_cat_id": 40544,
        "meta_element_set_no": 999,
        "meta_rev_at_epoch": 6600,
        "meta_bstar": 0,
        "meta_mean_motion_dot": -8.8e-07,
        "meta_mean_motion_ddot": 0,
        "tle_line1": "1 40544U 15017A   25345.50581957 -.00000088  00000+0  00000+0 0  9995",
        "tle_line2": "2 40544  56.8465 346.7135 0006509 271.8959  88.0466  1.70475934 66007"
      },
      "geometry": {
        "type": "Point",
        "coordinates": [
          114.52622458304484,
          50.380616461709955
        ]
      }
    }
  ]
}